SAR-LUPE 2              
1 31797U 07030A   26186.59922381  .00041218  00000+0  66337-3 0  9992
2 31797  98.1056 293.3556 0003503 219.9751 140.1243 15.52864839 59792
SAPPHIRE                
1 39088U 13009C   26186.42715044  .00000142  00000+0  64633-4 0  9993
2 39088  98.4270   5.4505 0010965 188.6296 171.4703 14.35245868699193
PRAETORIAN SDA_602      
1 65565U 25203A   26186.45790790  .00000107  00000+0  85938-4 0  9997
2 65565  81.3034 353.8492 0006768 140.3490 219.8163 13.83887533 41228
PRAETORIAN SDA_603      
1 65566U 25203B   26185.98064221  .00000172  00000+0  14392-3 0  9995
2 65566  81.3038 354.2133 0010377 139.9896 220.2027 13.83962121 41160
PRAETORIAN SDA_604      
1 65567U 25203C   26186.44553918  .00000083  00000+0  64948-4 0  9998
2 65567  81.3057 354.2233 0006230 144.0079 216.1498 13.83049603 41208
PRAETORIAN SDA_605      
1 65568U 25203D   26183.87446639  .00000022  00000+0  92536-5 0  9992
2 65568  81.3021 356.2472 0008905 142.0754 218.1031 13.83435094 40865
PRAETORIAN SDA_606      
1 65569U 25203E   26185.95744515  .00000068  00000+0  51309-4 0  9990
2 65569  81.3059 354.5553 0006845 139.9657 220.2005 13.83199490 41140
PRAETORIAN SDA_607      
1 65570U 25203F   26186.45807539  .00000278  00000+0  24033-3 0  9990
2 65570  81.3042 353.7226 0009751 138.4539 221.7360 13.83758422 41230
PRAETORIAN SDA_608      
1 65571U 25203G   26186.44102949  .00000091  00000+0  71534-4 0  9995
2 65571  81.3012 353.9065 0006729 143.1055 217.0566 13.83818896 41215
PRAETORIAN SDA_609      
1 65572U 25203H   26186.44076849  .00000307  00000+0  26480-3 0  9994
2 65572  81.3050 353.8867 0007641 137.7825 222.3922 13.84210876 41226
PRAETORIAN SDA_610      
1 65573U 25203J   26185.98757824  .00000047  00000+0  32061-4 0  9996
2 65573  81.3012 354.2858 0007487 143.7838 216.3827 13.83769183 41157
PRAETORIAN SDA_611      
1 65574U 25203K   26186.42825447  .00000508  00000+0  45227-3 0  9993
2 65574  81.3020 354.0563 0006284 146.1084 214.0475 13.83310572 41206
PRAETORIAN SDA_612      
1 65575U 25203L   26186.46734465  .00000248  00000+0  20845-3 0  9997
2 65575  81.3030 353.5623 0010059 138.8526 221.3391 13.85040001 41244
PRAETORIAN SDA_613      
1 65576U 25203M   26186.44216892  .00000091  00000+0  72324-4 0  9991
2 65576  81.3004 354.0546 0006477 137.3796 222.7864 13.82767133 41203
PRAETORIAN SDA_614      
1 65577U 25203N   26185.95420199 -.00000007  00000+0 -16511-4 0  9999
2 65577  81.3018 354.1196 0007923 137.6243 222.5527 13.84778009 41174
PRAETORIAN SDA_615      
1 65578U 25203P   26186.44136062  .00000246  00000+0  20866-3 0  9998
2 65578  81.3025 353.6434 0009855 137.4263 222.7659 13.84437864 41234
PRAETORIAN SDA_616      
1 65579U 25203Q   26186.42801251  .00000208  00000+0  17909-3 0  9998
2 65579  81.3066 354.2140 0006196 144.4199 215.7372 13.83269798 41201
PRAETORIAN SDA_617      
1 65580U 25203R   26186.45117342  .00000054  00000+0  38622-4 0  9999
2 65580  81.3041 354.0219 0008186 136.8527 223.3272 13.83151407 41214
PRAETORIAN SDA_618      
1 65581U 25203S   26185.97351480  .00000250  00000+0  21327-3 0  9990
2 65581  81.3024 354.0054 0010523 142.1516 218.0382 13.84225199 41178
PRAETORIAN SDA_619      
1 65582U 25203T   26186.45165197  .00000211  00000+0  17994-3 0  9995
2 65582  81.3048 353.8826 0009029 138.0176 222.1674 13.83805809 41850
PRAETORIAN SDA_620      
1 65583U 25203U   26186.41042667  .00000258  00000+0  22384-3 0  9998
2 65583  81.3033 353.9454 0008441 134.9877 225.1965 13.83304418 41219
PRAETORIAN SDA_621      
1 65584U 25203V   26186.45347543  .00000105  00000+0  84052-4 0  9996
2 65584  81.3025 353.8152 0008248 132.0420 228.1440 13.83803469 41225
PRAETORIAN SDA_601      
1 65585U 25203W   26186.43246748  .00000284  00000+0  24857-3 0  9994
2 65585  81.3047 354.1523 0006143 147.1435 213.0104 13.83169327 41207
VICTUS HAZE PUMA        
1 69646U 26142A   26186.63905977  .00004791  00000+0  21911-3 0  9992
2 69646  97.4473  84.0530 0025601 301.6788  58.1951 15.20730242  2472
